ORBCOMM FM37            
1 33064U 08031E   25273.06692758  .00003917  00000+0  53779-3 0  9993
2 33064  48.4380 204.9072 0004833 105.6116 325.1175 14.80148275929584
ORBCOMM FM40            
1 33065U 08031F   25273.50873544  .00006199  00000+0  78896-3 0  9999
2 33065  48.4398 185.0437 0006070 123.9919  46.2604 14.82524605929784
VESSELSAT 1             
1 37840U 11058C   25273.37253505  .00000462  00000+0  10702-3 0  9990
2 37840  19.9612 177.4012 0013542 263.4807  96.4055 14.11374612721187
ORBCOMM FM109           
1 40086U 14040A   25273.63104905  .00001899  00000+0  44261-3 0  9990
2 40086  47.0028 238.2456 0000658 101.1836 258.9123 14.58340854596451
ORBCOMM FM107           
1 40087U 14040B   25273.58568747  .00001708  00000+0  40113-3 0  9994
2 40087  47.0043 239.3805 0001136 353.2766   6.8104 14.58421892596522
ORBCOMM FM106           
1 40088U 14040C   25273.54558441  .00003564  00000+0  62178-3 0  9998
2 40088  47.0597  53.2084 0017240 198.4632 161.5635 14.69713939598970
ORBCOMM FM111           
1 40089U 14040D   25273.33371308  .00007252  00000+0  81817-3 0  9990
2 40089  47.0000 250.0847 0030325 335.2764  24.6678 14.86945377605876
ORBCOMM FM104           
1 40090U 14040E   25273.34742485  .00001479  00000+0  36414-3 0  9999
2 40090  47.0048 275.3871 0017073 322.9392  37.0313 14.56807295595956
